[{"OBJECT_NAME":"IDEFIX & ARIANE 42P R\/B","OBJECT_ID":"2002-021B","EPOCH":"2023-09-15T11:00:58.312800","MEAN_MOTION":14.29775016,"ECCENTRICITY":0.0011886,"INCLINATION":98.4946,"RA_OF_ASC_NODE":197.1754,"ARG_OF_PERICENTER":342.0722,"MEAN_ANOMALY":18.004,"EPHEMERIS_TYPE":0,"CLASSIFICATION_TYPE":"U","NORAD_CAT_ID":27422,"ELEMENT_SET_NO":999,"REV_AT_EPOCH":11446,"BSTAR":0.00019383,"MEAN_MOTION_DOT":4.55e-6,"MEAN_MOTION_DDOT":0},{"OBJECT_NAME":"CZ-4B R\/B","OBJECT_ID":"2002-024C","EPOCH":"2023-09-15T14:43:03.961056","MEAN_MOTION":14.14236292,"ECCENTRICITY":0.0051262,"INCLINATION":99.0165,"RA_OF_ASC_NODE":294.0548,"ARG_OF_PERICENTER":71.2541,"MEAN_ANOMALY":42.1333,"EPHEMERIS_TYPE":0,"CLASSIFICATION_TYPE":"U","NORAD_CAT_ID":27432,"ELEMENT_SET_NO":999,"REV_AT_EPOCH":10115,"BSTAR":7.3555e-5,"MEAN_MOTION_DOT":9.7e-7,"MEAN_MOTION_DDOT":0},{"OBJECT_NAME":"CZ-4B R\/B","OBJECT_ID":"2003-049C","EPOCH":"2023-09-15T10:07:51.587904","MEAN_MOTION":14.53286533,"ECCENTRICITY":0.0050582,"INCLINATION":98.5678,"RA_OF_ASC_NODE":208.7859,"ARG_OF_PERICENTER":117.1654,"MEAN_ANOMALY":243.4711,"EPHEMERIS_TYPE":0,"CLASSIFICATION_TYPE":"U","NORAD_CAT_ID":28059,"ELEMENT_SET_NO":999,"REV_AT_EPOCH":5488,"BSTAR":0.00017203,"MEAN_MOTION_DOT":6.77e-6,"MEAN_MOTION_DDOT":0},{"OBJECT_NAME":"CZ-2C R\/B","OBJECT_ID":"2004-012C","EPOCH":"2023-09-15T13:36:14.410080","MEAN_MOTION":15.19086295,"ECCENTRICITY":0.0037121,"INCLINATION":97.8063,"RA_OF_ASC_NODE":255.9276,"ARG_OF_PERICENTER":288.6576,"MEAN_ANOMALY":71.0628,"EPHEMERIS_TYPE":0,"CLASSIFICATION_TYPE":"U","NORAD_CAT_ID":28222,"ELEMENT_SET_NO":999,"REV_AT_EPOCH":6518,"BSTAR":0.0003697,"MEAN_MOTION_DOT":7.823e-5,"MEAN_MOTION_DDOT":0},{"OBJECT_NAME":"SL-16 R\/B","OBJECT_ID":"2004-021B","EPOCH":"2023-09-15T13:19:04.017504","MEAN_MOTION":14.14340825,"ECCENTRICITY":0.0006392,"INCLINATION":71.0023,"RA_OF_ASC_NODE":333.7084,"ARG_OF_PERICENTER":315.9192,"MEAN_ANOMALY":44.142,"EPHEMERIS_TYPE":0,"CLASSIFICATION_TYPE":"U","NORAD_CAT_ID":28353,"ELEMENT_SET_NO":999,"REV_AT_EPOCH":99469,"BSTAR":4.7392e-7,"MEAN_MOTION_DOT":-4.7e-7,"MEAN_MOTION_DDOT":0},{"OBJECT_NAME":"CZ-4B R\/B","OBJECT_ID":"2004-035C","EPOCH":"2023-09-15T12:57:04.508064","MEAN_MOTION":15.11822222,"ECCENTRICITY":0.0044601,"INCLINATION":97.4614,"RA_OF_ASC_NODE":293.5546,"ARG_OF_PERICENTER":256.2563,"MEAN_ANOMALY":103.3701,"EPHEMERIS_TYPE":0,"CLASSIFICATION_TYPE":"U","NORAD_CAT_ID":28415,"ELEMENT_SET_NO":999,"REV_AT_EPOCH":4226,"BSTAR":0.00021729,"MEAN_MOTION_DOT":3.734e-5,"MEAN_MOTION_DDOT":0},{"OBJECT_NAME":"CZ-2C R\/B","OBJECT_ID":"2004-046B","EPOCH":"2023-09-15T12:28:19.005888","MEAN_MOTION":14.26102551,"ECCENTRICITY":0.014038,"INCLINATION":98.1208,"RA_OF_ASC_NODE":216.8527,"ARG_OF_PERICENTER":315.2261,"MEAN_ANOMALY":43.7659,"EPHEMERIS_TYPE":0,"CLASSIFICATION_TYPE":"U","NORAD_CAT_ID":28480,"ELEMENT_SET_NO":999,"REV_AT_EPOCH":97929,"BSTAR":0.0001889,"MEAN_MOTION_DOT":4.59e-6,"MEAN_MOTION_DDOT":0},{"OBJECT_NAME":"ARIANE 5 R\/B","OBJECT_ID":"2004-049H","EPOCH":"2023-09-15T08:07:25.529088","MEAN_MOTION":14.81529729,"ECCENTRICITY":0.0090593,"INCLINATION":98.1475,"RA_OF_ASC_NODE":25.8031,"ARG_OF_PERICENTER":45.3867,"MEAN_ANOMALY":12.2856,"EPHEMERIS_TYPE":0,"CLASSIFICATION_TYPE":"U","NORAD_CAT_ID":28499,"ELEMENT_SET_NO":999,"REV_AT_EPOCH":1141,"BSTAR":0.00017227,"MEAN_MOTION_DOT":1.39e-5,"MEAN_MOTION_DDOT":0},{"OBJECT_NAME":"CZ-2D R\/B","OBJECT_ID":"2005-024B","EPOCH":"2023-09-15T13:55:58.137600","MEAN_MOTION":15.19548773,"ECCENTRICITY":0.0011533,"INCLINATION":97.3577,"RA_OF_ASC_NODE":257.7068,"ARG_OF_PERICENTER":43.9141,"MEAN_ANOMALY":316.3009,"EPHEMERIS_TYPE":0,"CLASSIFICATION_TYPE":"U","NORAD_CAT_ID":28738,"ELEMENT_SET_NO":999,"REV_AT_EPOCH":72,"BSTAR":0.00034908,"MEAN_MOTION_DOT":7.368e-5,"MEAN_MOTION_DDOT":0},{"OBJECT_NAME":"SUZAKU (ASTRO-EII)","OBJECT_ID":"2005-025A","EPOCH":"2023-09-15T05:08:50.252064","MEAN_MOTION":15.31115293,"ECCENTRICITY":0.0004335,"INCLINATION":31.3889,"RA_OF_ASC_NODE":190.0971,"ARG_OF_PERICENTER":312.7904,"MEAN_ANOMALY":47.2382,"EPHEMERIS_TYPE":0,"CLASSIFICATION_TYPE":"U","NORAD_CAT_ID":28773,"ELEMENT_SET_NO":999,"REV_AT_EPOCH":447,"BSTAR":0.00061217,"MEAN_MOTION_DOT":0.00019074,"MEAN_MOTION_DDOT":0},{"OBJECT_NAME":"ALOS (DAICHI)","OBJECT_ID":"2006-002A","EPOCH":"2023-09-15T10:42:19.132992","MEAN_MOTION":14.64451619,"ECCENTRICITY":0.0001103,"INCLINATION":97.9963,"RA_OF_ASC_NODE":213.324,"ARG_OF_PERICENTER":46.0243,"MEAN_ANOMALY":314.1051,"EPHEMERIS_TYPE":0,"CLASSIFICATION_TYPE":"U","NORAD_CAT_ID":28931,"ELEMENT_SET_NO":999,"REV_AT_EPOCH":94060,"BSTAR":0.00036623,"MEAN_MOTION_DOT":1.892e-5,"MEAN_MOTION_DDOT":0},{"OBJECT_NAME":"H-2A R\/B","OBJECT_ID":"2006-002B","EPOCH":"2023-09-15T07:25:17.073696","MEAN_MOTION":14.97176046,"ECCENTRICITY":0.0081502,"INCLINATION":98.2352,"RA_OF_ASC_NODE":330.0088,"ARG_OF_PERICENTER":35.9586,"MEAN_ANOMALY":324.708,"EPHEMERIS_TYPE":0,"CLASSIFICATION_TYPE":"U","NORAD_CAT_ID":28932,"ELEMENT_SET_NO":999,"REV_AT_EPOCH":95800,"BSTAR":0.00038859,"MEAN_MOTION_DOT":4.737e-5,"MEAN_MOTION_DDOT":0},{"OBJECT_NAME":"GENESIS 1","OBJECT_ID":"2006-029A","EPOCH":"2023-09-15T12:56:15.645408","MEAN_MOTION":15.28637574,"ECCENTRICITY":0.0013592,"INCLINATION":64.5219,"RA_OF_ASC_NODE":8.9839,"ARG_OF_PERICENTER":211.0682,"MEAN_ANOMALY":148.9644,"EPHEMERIS_TYPE":0,"CLASSIFICATION_TYPE":"U","NORAD_CAT_ID":29252,"ELEMENT_SET_NO":999,"REV_AT_EPOCH":94832,"BSTAR":0.0004385,"MEAN_MOTION_DOT":0.00012106,"MEAN_MOTION_DDOT":0}]
