IDEFIX & ARIANE 42P R/B 
1 27422U 02021B   23258.45900825  .00000455  00000+0  19383-3 0  9995
2 27422  98.4946 197.1754 0011886 342.0722  18.0040 14.29775016114468
CZ-4B R/B               
1 27432U 02024C   23258.61324029  .00000097  00000+0  73555-4 0  9997
2 27432  99.0165 294.0548 0051262  71.2541  42.1333 14.14236292101156
CZ-4B R/B               
1 28059U 03049C   23258.42212486  .00000677  00000+0  17203-3 0  9994
2 28059  98.5678 208.7859 0050582 117.1654 243.4711 14.53286533 54880
CZ-2C R/B               
1 28222U 04012C   23258.56683345  .00007823  00000+0  36970-3 0  9990
2 28222  97.8063 255.9276 0037121 288.6576  71.0628 15.19086295 65161
SL-16 R/B               
1 28353U 04021B   23258.55490761 -.00000047  00000+0  47392-6 0  9997
2 28353  71.0023 333.7084 0006392 315.9192  44.1420 14.14340825994698
CZ-4B R/B               
1 28415U 04035C   23258.53963551  .00003734  00000+0  21729-3 0  9999
2 28415  97.4614 293.5546 0044601 256.2563 103.3701 15.11822222 42266
CZ-2C R/B               
1 28480U 04046B   23258.51966442  .00000459  00000+0  18890-3 0  9999
2 28480  98.1208 216.8527 0140380 315.2261  43.7659 14.26102551979296
ARIANE 5 R/B            
1 28499U 04049H   23258.33848992  .00001390  00000+0  17227-3 0  9999
2 28499  98.1475  25.8031 0090593  45.3867  12.2856 14.81529729 11415
CZ-2D R/B               
1 28738U 05024B   23258.58053400  .00007368  00000+0  34908-3 0  9994
2 28738  97.3577 257.7068 0011533  43.9141 316.3009 15.19548773   729
SUZAKU (ASTRO-EII)      
1 28773U 05025A   23258.21447051  .00019074  00000+0  61217-3 0  9993
2 28773  31.3889 190.0971 0004335 312.7904  47.2382 15.31115293  4471
ALOS (DAICHI)           
1 28931U 06002A   23258.44605478  .00001892  00000+0  36623-3 0  9991
2 28931  97.9963 213.3240 0001103  46.0243 314.1051 14.64451619940602
H-2A R/B                
1 28932U 06002B   23258.30922539  .00004737  00000+0  38859-3 0  9991
2 28932  98.2352 330.0088 0081502  35.9586 324.7080 14.97176046958000
GENESIS 1               
1 29252U 06029A   23258.53906997  .00012106  00000+0  43850-3 0  9997
2 29252  64.5219   8.9839 0013592 211.0682 148.9644 15.28637574948326
